SES-2                   
1 37809U 11049A   26198.10809286 -.00000206  00000+0  00000+0 0  9999
2 37809   0.1330  90.9243 0002701  23.1237 132.7856  1.00271974 54261
ARABSAT-5C              
1 37810U 11049B   26198.12928979  .00000113  00000+0  00000+0 0  9990
2 37810   0.0524  24.9791 0003549 107.5256 228.9754  1.00272292 54338
EUTELSAT 7 WEST A       
1 37816U 11051A   26198.10947382 -.00000071  00000+0  00000+0 0  9990
2 37816   0.0614 352.7395 0004690 135.8946 198.3753  1.00271194 54175
QUETZSAT 1              
1 37826U 11054A   26197.96757700 -.00000252  00000+0  00000+0 0  9991
2 37826   0.0485 269.2367 0002777 214.9715  81.9047  1.00269355 50175
INTELSAT 18 (IS-18)     
1 37834U 11056A   26198.16100994  .00000043  00000+0  00000+0 0  9999
2 37834   0.0301 236.9189 0001802 251.3969  44.6195  1.00272226 54117
EUTELSAT 16A            
1 37836U 11057A   26198.12850979  .00000094  00000+0  00000+0 0  9999
2 37836   0.0420  25.7382 0005762  87.3427 244.1588  1.00274630  7634
VIASAT-1                
1 37843U 11059A   26198.05316227  .00000000  00000+0  00000+0 0  9991
2 37843   0.0226  59.0485 0002230  50.6009  89.2654  1.00271393 47624
ASIASAT 7               
1 37933U 11069A   26198.00370454 -.00000344  00000+0  00000+0 0  9991
2 37933   0.0206  72.0351 0001252  15.6437 313.9953  1.00271291 45150
BEIDOU-2 IGSO-5         
1 37948U 11073A   26183.72937883 -.00000128  00000+0  00000+0 0  9990
2 37948  47.6496 271.3544 0114527 222.0502 141.5350  1.00270596 53296
LUCH-5A                 
1 37951U 11074B   26197.87327845 -.00000063  00000+0  00000+0 0  9995
2 37951   8.8274  73.3694 0002667  60.5336 282.1722  1.00273389 53344
NIGCOMSAT 1R            
1 38014U 11077A   26198.13379649  .00000135  00000+0  00000+0 0  9997
2 38014   0.0314 111.6018 0002497 237.9208  36.0771  1.00271864 53255
WGS F4 (USA 233)        
1 38070U 12003A   26198.07160190 -.00000225  00000+0  00000+0 0  9992
2 38070   0.0195  43.2462 0000653 115.8903 249.9384  1.00271707 44447
SES-4                   
1 38087U 12007A   26198.17683507 -.00000178  00000+0  00000+0 0  9994
2 38087   0.0221  37.7487 0002551  79.9668 218.9491  1.00273492 52523
BEIDOU-2 G5             
1 38091U 12008A   26198.13700318  .00000046  00000+0  00000+0 0  9999
2 38091   3.6466  69.5053 0007311 268.5365  64.8902  1.00270818 52668
MUOS-1                  
1 38093U 12009A   26198.10549285 -.00000140  00000+0  00000+0 0  9999
2 38093   5.5352  47.1116 0056738   3.5583 182.2863  1.00271671 52741
INTELSAT 22 (IS-22)     
1 38098U 12011A   26198.06830854 -.00000069  00000+0  00000+0 0  9997
2 38098   0.0169  51.2847 0001842  75.2995 264.9948  1.00271909  7485
APSTAR-7                
1 38107U 12013A   26198.07753093 -.00000111  00000+0  00000+0 0  9998
2 38107   0.0265  91.5157 0002967  35.6094 272.1839  1.00270983 52103
YAHSAT 1B               
1 38245U 12016A   26198.13474984  .00000117  00000+0  00000+0 0  9995
2 38245   0.0871  88.6509 0002488  25.8362 276.5725  1.00262119 45908
AEHF-2 (USA 235)        
1 38254U 12019A   26197.93030730 -.00000148  00000+0  00000+0 0  9997
2 38254   6.7168  57.2614 0002188  60.3970 135.5222  1.00272112  7284
JCSAT-13                
1 38331U 12023A   26198.11086617 -.00000367  00000+0  00000+0 0  9997
2 38331   0.0177  38.9737 0002532  85.6335 334.2261  1.00269438 51846
VINASAT-2               
1 38332U 12023B   26198.17058719 -.00000339  00000+0  00000+0 0  9995
2 38332   0.0234 326.3559 0002223 151.6588  10.2241  1.00269971 46966
NIMIQ 6                 
1 38342U 12026A   26198.10731285 -.00000184  00000+0  00000+0 0  9996
2 38342   0.0662 264.9880 0002754 216.0705 121.4028  1.00271497 50714
ZHONGXING-2A            
1 38352U 12028A   26198.09538992 -.00000303  00000+0  00000+0 0  9990
2 38352   1.5299  83.4886 0001414  41.3352 302.6775  1.00269721 51592
INTELSAT 19 (IS-19)     
1 38356U 12030A   26198.15823661 -.00000067  00000+0  00000+0 0  9991
2 38356   0.0186  41.0723 0002866  74.6663  42.1889  1.00271760 50756
ECHOSTAR 17             
1 38551U 12035A   26198.10410617 -.00000085  00000+0  00000+0 0  9991
2 38551   0.0180  44.8190 0002085  66.6356 113.8418  1.00270857 51367
METEOSAT-10 (MSG-3)     
1 38552U 12035B   26197.76898441 -.00000019  00000+0  00000+0 0  9995
2 38552   4.7400  60.8739 0001221  16.6665 133.9327  1.00271271 51150
SES-5                   
1 38652U 12036A   26198.10391889  .00000023  00000+0  00000+0 0  9994
2 38652   0.0442 323.1939 0001966 153.0082 221.1059  1.00271759 44759
INTELSAT 20 (IS-20)     
1 38740U 12043A   26198.06761521 -.00000034  00000+0  00000+0 0  9992
2 38740   0.0110  61.8578 0001260 119.1700 206.7087  1.00270598 51041
HYLAS 2                 
1 38741U 12043B   26198.11095286 -.00000269  00000+0  00000+0 0  9997
2 38741   2.5028  80.7045 0002351  56.2794 125.3113  1.00272414 51070
INTELSAT 21 (IS-21)     
1 38749U 12045A   26198.11382779 -.00000295  00000+0  00000+0 0  9992
2 38749   0.0481 246.2144 0001615 241.0925 150.6068  1.00272417 50820
ASTRA 2F                
1 38778U 12051A   26198.13093647  .00000140  00000+0  00000+0 0  9994
2 38778   0.0840 255.4790 0002997 287.5774 187.1826  1.00270382 41434
GSAT-10                 
1 38779U 12051B   26198.14176986 -.00000175  00000+0  00000+0 0  9993
2 38779   0.0859 264.4590 0007444 190.3180 334.2173  1.00272744 50396
